lab,address,pincode,city,state,type,,Lat,Long
"ICMR-Regional Medical Research Centre, Port Blair","ICMR-Regional Medical Research Centre, Post Bag 13, Dollygunj, Port Blair, Andaman and Nicobar Islands 744103",744103,Port Blair,Andaman and Nicobar Islands,Government Laboratory,,11.54819393,92.67503357
"Tomo Riba Institute of Health & Medical Sciences, Naharlagun","National Highway 52A, Old Assembly Complex, Naharlagun, Arunachal Pradesh 791110",791110,Naharlagun,Arunachal Pradesh,Collection Site,,27.14160156,93.67677307
"Sri Venkateswara Institute of Medical Sciences, Tirupati","Sri Venkateswara Institute of Medical Sciences, Tirupati, Andhra Pradesh Alipiri Rd, Sri Padmavati Mahila Visvavidyalayam, Tirupati, Andhra Pradesh 517507",517507,Tirupati,Andhra Pradesh,Government Laboratory,,13.63023186,79.44629669
"Rangaraya Medical College, Kakinada","Rangaraya Medical College, Kakinada Pithampuram Road, Kakinada, Andhra Pradesh 533001",533001,Kakinada,Andhra Pradesh,Government Laboratory,,16.94872093,82.24107361
"Sidhartha Medical College, Vijaywada","Siddhartha Medical College, Vijayawada NH 16 Service Rd, beside Dr NTR University of Health Sciences, Gunadala, Vijayawada, Andhra Pradesh 520008",520008,Vijayawada,Andhra Pradesh,Government Laboratory,,12.55426049,77.23938751
"Government Medical College, Anantapur","Government Medical College, Anantapur, Rahamat Nagar, Anantapur, Andhra Pradesh 515001",515001,Anantapur,Andhra Pradesh,Government Laboratory,,14.67088795,77.59365082
"Guntur Medical College, Guntur","Guntur Medical College, Guntur Kanna Vari Thota, Guntur, Andhra Pradesh 522004",522004,Guntur,Andhra Pradesh,Government Laboratory,,16.29110718,80.41498566
"Rajeev Gandhi Institute of Medical Sciences (RIMS), Kadappa","Rajiv Gandhi Institute of Medical Sciences, Kadapa Puttampalli, Andhra Pradesh 516002",516002,Puttampalli,Andhra Pradesh,Government Laboratory,,14.49736214,78.86276245
"Andhra Medical College, Vishakhapatnam","Andhra Medical College, Vishakhapatnam, Medical College Road, Opp Collector Office, Maharanipeta, King George Hospital Campus, Andhra Pradesh 530002",530002,Vishakhapatnam,Andhra Pradesh,Government Laboratory,,17.70717239,83.30757141
"Gauhati Medical College, Guwahati","Guwahati Narakasur Hilltop, Bhangagarh, Guwahati, Assam 781032",781032,Guwahati,Assam,Government Laboratory,,26.16304207,91.76308441
"Regional Medical Research Centre, Dibrugarh","Regional Medical Research Centre, Dibrugarh Bokul, Lahowal, Dibrugarh, Assam, Assam 786001",786001,Dibrugarh,Assam,Government Laboratory,,27.48009109,94.91824341
"Jorhat Medical College, Jorhat","Jorhat Medical College, Jorhat Kushal Konwar Path, Barbheta, Jorhat, Assam 785001",785001,Jorhat,Assam,Government Laboratory,,26.75717545,94.20353699
"Silchar Medical College, Silchar","Silchar Medical College, Silchar Ghungoor Road, beside Indian Post, Masimpur, Uttar Krishnapur Pt III, Assam 788014",788014,Silchar,Assam,Government Laboratory,,24.77210236,92.79281616
"Fakhruddin Medical College, Barpeta","Fakhruddin Medical College, Barpeta-Hospital-Jania Rd, Joti Gaon, Assam 781301",781301,Barpeta,Assam,Government Laboratory,,26.24950027,90.91574097
"Tezpur Medical College and Hospital, Tezpur","Tezpur Medical College. Bihaguri, Tezpur 784010, Assam, India",784010,Tezpur,Assam,Government Laboratory,,26.66670799,92.67974091
"Rajendra Memorial Research Institute of Medical Sciences, Patna","Rajendra Memorial Research Institute of Medical Sciences, Sadikpur, Patna, Bihar 800007",800007,Patna,Bihar,Government Laboratory,,25.60148048,85.20063782
"Indira Gandhi Institute of Medical Sciences, Patna","Indira Gandhi Institute of Medical Sciences, Allahabad bank, Bailey Rd, Sheikhpura, Patna, Bihar 800014",800014,Patna,Bihar,Government Laboratory,,25.60103607,85.08102417
"Patna Medical College, Patna","Patna Medical College, Ashok Rajpath, Patna University Campus, Patna, Bihar 800001",800001,Patna,Bihar,Government Laboratory,,25.59651184,85.12941742
"Darbhanga Medical College, Darbhanga","Darbhanga Medical College, DMCH Rd, Allalpatti, Laheriasarai, Darbhanga, Bihar 846003",846003,Darbhanga,Bihar,Government Laboratory,,26.08987045,85.84085083
"S K Medical College, Muzaffarpur","S K Medical College, Shree Krishna medical college, Uma Nagar, Muzaffarpur, Bihar 842004",842004,Muzaffarpur,Bihar,Government Laboratory,,26.2013855,85.39620209
"All India Institute of Medical Sciences (AIIMS), Patna","All India Institute of Medical Sciences, Phulwarisharif, Patna, Bihar 801507, India",801507,Patna,Bihar,Government Laboratory,,25.64791107,84.9475708
"Post Graduate Institute of Medical Education & Research, Chandigarh","Post Graduate Institute of Medical Education & Research, Chandigarh, Madhya Marg, Sector 12, Chandigarh, 160012",160012,Chandigarh,Chandigarh,Government Laboratory,,30.76771545,76.78108978
"Government Medical College & Hospital, Chandigarh","Government Medical College & Hospital, Chandi Path, Sector 32B, 32B, Sector 32, Chandigarh, 160047",160047,Chandigarh,Chandigarh,Government Laboratory,,30.7006855,76.75610352
"CSIR - Institute of Microbial Technology, Chandigarh","CSIR - Institute of Microbial Technology, Sector 39A, Chandigarh, 160036, India",160036,Chandigarh,Chandigarh,Government Laboratory,,30.72966576,76.74060822
"All India Institute of Medical Science (AIIMS), Raipur","All India Institute of Medical Science (AIIMS), Great Eastern Rd, AIIMS Campus, Tatibandh, Raipur, Chhattisgarh 492099",492099,Raipur,Chhattisgarh,Government Laboratory,,21.27123833,81.57872009
"Late Baliram Kashyap M Govt. Medical College, Jagdalpur","Late Baliram Kashyap M Govt. Medical College, Dimrapal, Jagdalpur, Chhattisgarh 494001",494001,Jagdalpur,Chhattisgarh,Government Laboratory,,18.9232235,82.0916748
Pt J.N.M. Medical College Raipur,"Pt. Jawahar Lal Nehru Memorial Medical College, Jail Road, Raipur, Chhattisgarh 492001, India",492001,Raipur,Chhattisgarh,Government Laboratory,,21.23154068,81.64916992
"Shri Vinoba Bhave Civil Hospital and NAtional MOdern Medical Education and Research Institute, Silvassa","NAtional MOdern Medical Education and Research Institute and Shri Vinoba Bhave Civil Hospital, Sayali Road, Silvassa Dadra & Nagar Haveli 396230 India",396230,Silvassa,Dadra and Nagar Haveli and Daman and Diu,Government Laboratory,,20.12715721,73.13269806
"All India Institute of Medical Sciences, New Delhi","All India Institute of Medical Sciences, Sri Aurobindo Marg, Ansari Nagar, Ansari Nagar East, New Delhi, Delhi 110029",110029,New Delhi,Delhi,Government Laboratory,,28.5640583,77.19673157
"Lady Hardinge Medical College, New Delhi","Lady Hardinge Medical College, Connaught Place, New Delhi, Delhi 110001",110001,New Delhi,Delhi,Government Laboratory,,28.62320328,77.22280121
"National Centre for Disease Control, New Delhi","National Centre for Disease Control, 22, Sham Nath Marg, Civil Lines, New Delhi, Delhi 110054",110054,New Delhi,Delhi,Government Laboratory,,28.68694305,77.22031403
"Ram Manohar Lohia Hospital, New Delhi","Ram Manohar Lohia Hospital, Type III, President's Estate, New Delhi, Delhi 110001",110001,New Delhi,Delhi,Government Laboratory,,28.62320328,77.22280121
"Institute of Liver and Biliary Sciences, New Delhi","Institute of Liver and Biliary Sciences, D1 ILBS Road, Vasant Kunj, New Delhi, Delhi 110070",110070,New Delhi,Delhi,Government Laboratory,,28.52666473,77.14917755
"Army Hospital Research & Referral, New Delhi","Army Hospital Research & Referral, Military Hospital Road Near, Subroto Park, Dhaula Kuan, New Delhi, Delhi 110010",110010,New Delhi,Delhi,Government Laboratory,,28.60531425,77.1378479
"Maulana Azad Medical College, New Delhi","Maulana Azad Medical College, 2, Bahadur Shah Zafar Marg, New Delhi, Delhi 110002",110002,New Delhi,Delhi,Government Laboratory,,28.63672829,77.24759674
"Vardhman Mahavir Medical College and Safdarjung Hospital, New Delhi","Vardhman Mahavir Medical College and Safdarjung Hospital, Ansari Nagar East, New Delhi, Delhi 110029",110029,New Delhi,Delhi,Government Laboratory,,28.5640583,77.19673157
"Dr Lal PathLabs, National Reference laboratory","Dr Lal PathLabs, National Reference laboratory, B7 Rd, Block E, Sector 18, Rohini, New Delhi, Delhi 110085",110085,New Delhi,Delhi,Private Laboratory,,28.71668816,77.11730194
"Dr. Dang’s Lab, New Delhi","Dr. Dang’s Lab, C2/1 SDA Aurbindo Marg, New Delhi 110016",110016,New Delhi,Delhi,Private Laboratory,,28.54451942,77.19062805
"Laboratory Services Indraprastha Apollo Hospitals, Sarita Vihar, New Delhi","Laboratory Services Indraprastha Apollo Hospitals, Sarita Vihar, New Delhi 110076",110076,New Delhi,Delhi,Private Laboratory,,28.52692986,77.32012177
"Max lab, Max Super Speciality Hospita, Saket, New Delhi","Max lab, Max Super Speciality Hospital, 1, Press Enclave Road, Saket New Delhi 110017",110017,New Delhi,Delhi,Private Laboratory,,28.5336647,77.21425629
"Sir ganga ram hospital clinical laboratory services, New Delhi","Sir ganga ram hospital clinical laboratory services, Sarhadi Gandhi Marg, Old Rajinder Nagar, Rajinder Nagar, New Delhi, Delhi 110060",110060,New Delhi,Delhi,Private Laboratory,,28.63625526,77.18307495
"ONCQUEST Laboratories Limited, New Delhi","ONCQUEST Laboratories Limited 3-Factory Road, Adjacent Safdarjung Hospital, New Delhi, Delhi 110029",110029,New Delhi,Delhi,Private Laboratory,,28.5640583,77.19673157
"Prognosis Laboratories, New Delhi","Prognosis Laboratories, 515-516, behind Gupta Properties, Close to Welcome Hotel (ITC, Sector 19, Pocket 1, Dwarka, New Delhi, Delhi 110075",110075,New Delhi,Delhi,Private Laboratory,,28.58101845,77.05377197
"City x-Ray & Scan Clinic Pvt. Ltd., New Delhi","City X Ray & Scan Clinic Pvt. Ltd., Molecular Laboratory, Third Floor,City Imaging Building, 4B/18, Tilak Nagar, Near haldiram, New Delhi 110018",110018,New Delhi,Delhi,Private Laboratory,,28.64316559,77.08716583
"Lifeline Laboratory, New Delhi","Lifeline Laboratory, H-11, Green Park Extension, New Delhi, Delhi 110016",110016,New Delhi,Delhi,Private Laboratory,,28.54451942,77.19062805
"Department of Laboratory Services, Dr. B.L. Kapur Memorial Hospital New Delhi","Department of Laboratory Services, Dr. B.L. Kapur Memorial Hospital, 5, Pusa Road, New Delhi-110005, India",110005,New Delhi,Delhi,Private Laboratory,,28.65441322,77.19139862
"BJ Medical College, Ahmedabad","B j medical college, Asarwa, Civil Hospital Campus, Ahmedabad, Gujarat 380016",380016,Ahmedabad,Gujarat,Government Laboratory,,23.04553413,72.60569763
"M. P. Shah Govt Medical College, Jamnagar","M.P. Shah Govt Medical College, Pandit Nehru Marg, Indradeep Society, Jamnagar, Gujarat 361008",361008,Jamnagar,Gujarat,Government Laboratory,,22.48488998,70.06291962
"Government Medical College, Surat","Government Medical College, Opp Income Tax Department Office, Majura Gate, Surat, Gujarat 395001",395001,Surat,Gujarat,Government Laboratory,,21.17968178,72.8107605
"Government Medical College, Bhavnagar","Government Medical College, Near State Road Transport Corporation Bus Stand, Bhavnagar, Gujarat 364001",364001,Bhavnagar,Gujarat,Government Laboratory,,21.77128983,72.14073181
"Government Medical College, Vadodara","Government Medical College, Vinoba Bhave Rd, Anandpura, Vadodara, Gujarat 390001",390001,Vadodara,Gujarat,Government Laboratory,,22.29730415,73.19635773
"Government Medical College, Rajkot","Government Medical College, Pandit Dindayal Upadhyay Medical College, Sadar Civil Hospital Campus, Rajkot, Gujarat 360001",360001,Rajkot,Gujarat,Government Laboratory,,22.30498505,70.79506683
"Smt. NHL Municipal Medical College, Ahmedabad","Smt. NHL Municipal Medical College, Pritan Rai Cross Road, Ellise Bridge, Paldi, Ahmedabad, Gujarat 380006, India",380006,Ahmedabad,Gujarat,Government Laboratory,,23.02137756,72.56661224
"GMERS Medical Collage, Ahmedabad","GMERS Medical Collage, Sola, S.G. Highway, Ahmedabad, Gujarat 380060, India",380060,Ahmedabad,Gujarat,Government Laboratory,,23.11012268,72.51769257
"ICMR-National Institute of Occupational Health, Ahmedabad","ICMR-National Institute of Occupational Health, Meghani Nagar, Ahmedabad-380016, Gujarat, India",380016,Ahmedabad,Gujarat,Government Laboratory,,23.04553413,72.60569763
"Surat Municipal Institute of Medical Education & Research, Surat","Surat Municipal Institute of Medical Education & Research, Near Sahara Darwaja, Opposite to Bombay Market, Umarwada, Surat- 395010 Gujarat, India",395010,Surat,Gujarat,Government Laboratory,,21.19107056,72.87670135
"Unipath Speciality Laboratory Limited, Ahmedabad","Unipath Speciality Laboratory Limited,, 102, 1st Floor, Sanoma Plaza, Sheth Mangald Road, Opp. Parimal Garden, Ellisbridge, Ahmedabad, Gujarat 380006",380006,Ahmedabad,Gujarat,Private Laboratory,,23.02137756,72.56661224
"Supratech Micropath Laboratory & Research Institute Pvt. Ltd., Ahmedabad","Supratech Micropath Laboratory & Research Institute Pvt. Ltd., Neuberg Supratech, Ground Floor, Kedar Builiding, Opp. Krupa petrol Pump Parimal garden, Gujarat 380006",380006,Ahmedabad,Gujarat,Private Laboratory,,23.02137756,72.56661224
"S. N. GENELAB, Nanpura, Surat","S. N. GENELAB, 2nd Floor, President Plaza-A, Nanpura, Surat, Gujarat, India 395001",395001,Surat,Gujarat,Private Laboratory,,21.17968178,72.8107605
"PanGenomics International Pvt. Ltd., Ahmedabad","PanGenomics International Pvt. Ltd., 1st floor sankalp Squre Juna sharda Mandir Cross Road, Ahmedabad, Gujarat 380006",380006,Ahmedabad,Gujarat,Private Laboratory,,23.02137756,72.56661224
"Goa Medical College, Bambolim","Goa Medical College and Hospital, Bambolim Bambolim, Tiswadi Goa India 403202",403202,Goa,Goa,Government Laboratory,,15.45193291,73.85746002
"Pandit Bhagwat Dayal Sharma Post Graduate Institute of Medical Sciences, Rohtak","Pandit Bhagwat Dayal Sharma Post Graduate Institute of Medical Sciences, SH 16A, Dev Colony, Rohtak, Haryana 124514",124514,Rohtak,Haryana,Government Laboratory,,29.00401115,76.5079422
"BPS Government Medical College for Women, Sonipat","Bhagat Phool Singh Government Medical College, Ganaur - Gohana Rd, Khanpur Kalan, Haryana 131305",131305,Sonipat,Haryana,Government Laboratory,,29.1517601,76.79093933
"ESIC Medical College and Hospital, Faridabad","ESIC Medical College and Hospital, NH-3, NIT, Faridabad, Haryana",121012,Faridabad,Haryana,Government Laboratory,,29.168807,75.7461103
"ICAR-National Research Centre on Equines, Hisar","ICAR-National Research Centre on Equines, Sirsa Road, Hisar , 125001, Haryana, India",125001,Hisar,Haryana,Government Laboratory,,29.07210159,75.57343292
"Kalpana Chawla Government Medical College and Hospital, Karnal","Kalpana Chawla Government Medical College and Hospital, Karnal, Haryana 132001, India",132001,Karnal,Haryana,Government Laboratory,,29.72069168,76.8963623
"Strand Life Sciences, Gurugram","Strand Life Sciences, A-17, Info Technology Park, Sector 34, Gurugram, Haryana 122001",122001,Gurugram,Haryana,Private Laboratory,,28.46090698,77.03964233
"SRL Limited, Gurugram","SRL Limited, GP 26 Sector 18, Gurugram, Haryana, India Pin 122015",122015,Gurugram,Haryana,Private Laboratory,,28.49150085,77.06990814
"Modern Diagnostic & research Centre Laboratory, Gurugram","Modern Diagnostic & research Centre Laboratory, 363-364/4, Jawahar Nagar, New Railway Road, Gurugram-122001, Haryana",122001,Gurugram,Haryana,Private Laboratory,,28.46090698,77.03964233
"CORE Diagnostics Pvt Ltd, Gurugram","CORE Diagnostics Pvt Ltd, 406, Udyog Vihar III, Sector 20, Gurugram, Haryana 122016",122016,Gurugram,Haryana,Private Laboratory,,28.50484085,77.07675171
"Molq Lab (A Unit of Molecular Quest Healthcare Private Limited), Gurugram","Molq Lab (A Unit of Molecular Quest Healthcare Private Limited), Plot 28-29, Sector 18(P), Electronic City, Udyog Vihar Phase-IV, Gurugram, Haryana 122001",122001,Gurugram,Haryana,Private Laboratory,,28.46090698,77.03964233
"PATHKIND Diagnostics Pvt. Ltd., Gurugram","PATHKIND Diagnostics Pvt. Ltd., Plot No. 55, 56, Service Lane, Phase IV, Udyog Vihar, Sector 18, Gurugram, Haryana 122015",122015,Gurugram,Haryana,Private Laboratory,,28.49150085,77.06990814
"Indira Gandhi Medical College, Shimla","Indira Gandhi Medical College, Ridge Sanjauli Rd, Lakkar Bazar, Shimla, Himachal Pradesh 171001",171001,Shimla,Himachal Pradesh,Government Laboratory,,31.10879135,77.17776489
"Dr. Rajendra Prasad Government Medical College, Tanda","Dr. Rajendra Prasad Government Medical College, Tanda Hospital Rd, Kangra, Himachal Pradesh 176001",176001,Kangra,Himachal Pradesh,Government Laboratory,,32.08877563,76.2485199
"Central Research Institute, Kasauli","Central Research Institute, Solan, Kasauli, Himachal Pradesh 173204",173204,Kasauli,Himachal Pradesh,Government Laboratory,,30.91273499,76.95587921
"Government Medical College, Jammu","Government Medical College, maheshpura, chowk, Bakshi Nagar, Jammu Cantonment, Jammu and Kashmir 180001",180001,Jammu,Jammu and Kashmir,Government Laboratory,,32.73407745,74.8680954
"Command Hospital, Udhampur","Command Hospital, Raghunathpura, Udhampur, Jammu and Kashmir 182101",182101,Udhampur,Jammu and Kashmir,Government Laboratory,,32.92361832,75.13542938
"Sher-i -Kashmir Institute of Medical Sciences, Srinagar","Sher - i-Kashmir Institute of Medical Sciences, SKIMS Main Rd, Soura, Srinagar, 190011",190011,Srinagar,Jammu and Kashmir,Government Laboratory,,34.133358,74.80870819
"Government Medical College, Srinagar","Government Medical College, Jammu and Kashmir, Bemina, Srinagar, 190010",190010,Srinagar,Jammu and Kashmir,Government Laboratory,,34.08628082,74.78832245
"MGM Medical College, Jamshedpur","MGM Medical College, Dimna Rd, Hill View Colony, Mango, Jamshedpur, Jharkhand 831020",831020,Jamshedpur,Jharkhand,Government Laboratory,,22.85025406,86.19275665
"Rajendra Institute of Medical Sciences, Ranchi","Rajendra Institute of Medical Sciences, Cir, Indraprasth Colony, Bariatu, Ranchi, Jharkhand 834009",834009,Ranchi,Jharkhand,Government Laboratory,,23.40702248,85.3660965
"Patliputra Medical College & Hospital, Dhanbad","Patliputra Medical College & Hospital, B.C.C.L. Township, Koyla Nagar, Dhanbad - 826005, Jharkhand",826005,Dhanbad,Jharkhand,Government Laboratory,,23.81614304,86.45114136
"Hassan Institute of Medical Sciences, Hassan","Hassan Institute of Medical Sciences, Shri panchamukhi medicals and clinic, opp. govt high school, Hassan, Karnataka 573201",573201,Hassan,Karnataka,Government Laboratory,,12.99333763,76.08660126
"Mysore Medical College & Research Institute, Mysore","Mysore Medical College & Research Institute, Irwin Road, next to Railway Staion, Mysuru, Karnataka 570001",570001,Mysuru,Karnataka,Government Laboratory,,12.32068825,76.65479279
"Shimoga Institute of Medical Sciences, Shivamogga","Shimoga Institute of Medical Sciences, N.H.206, Sagara Road, Shivamogga, Karnataka 577201",577201,Shivamogga,Karnataka,Government Laboratory,,13.96845531,75.59669495
Command Hospital (Air Force) Bengaluru,"Command Hospital (Air Force) , Cambridge Rd, Cambridge Layout, Jogupalya, Bengaluru, Karnataka 560007",560007,Bengaluru,Karnataka,Government Laboratory,,12.95630741,77.6283493
"Bangalore Medical College & Research Institute, Bangaluru","Bangalore Medical College & Research Institute, Krishna Rajendra Rd, Bengaluru, Karnataka 560002",560002,Bengaluru,Karnataka,Government Laboratory,,12.96388245,77.57756042
"National Institute of Virology, Field Unit, Bengaluru","National Institute of Virology, Field Unit, Jaya Nagar 1st Block, Jayanagar, Bengaluru, Karnataka 560011",560011,Bengaluru,Karnataka,Government Laboratory,,12.93476772,77.59075928
"Gulbarga Institute Of Medical Sciences, Gulbarga","Gulbarga Institute Of Medical Sciences, Sedam Rd,Veeresh Nagar Cross, behind MRMC, Gulbarga, Karnataka 585101",585101,Gulbarga,Karnataka,Government Laboratory,,17.34010315,76.82282257
"National Institute of Mental Health and Neurosciences, Bengaluru","National Institute of Mental Health and Neurosciences,, Hosur Road, Lakkasandra, Hombegowda Nagar, Bengaluru, Karnataka 560029",560029,Bengaluru,Karnataka,Government Laboratory,,12.92637253,77.60727692
"Vijayanagar Institute of Medical Science, Bellary","Vijayanagar Institute of Medical Sciences, Contonment, Bellary 583104, Karnataka, India",583104,Bellary,Karnataka,Government Laboratory,,15.17047119,76.86248779
"Wenlock District Hospital, Mangalore","Wenlock District Hospital, Hampankatta, Mangalore, Karnataka 575001",575001,Mangalore,Karnataka,Government Laboratory,,12.85948753,74.84461212
"Karnataka Institute of Medical Sciences (K.I.M.S.), Hubballi","Karnataka Institute of Medical Sciences (K.I.M.S.), P. B Road, Vidyanagar, Hubli – 580022, Karnataka, India",580022,Hubli,Karnataka,Government Laboratory,,15.35573292,75.14025879
"ICMR-National Institute of Traditional Medicine (NITM), Belagavi","ICMR-National Institute of Traditional Medicine (NITM), Nehru Nagar, National Highway No. 4, Belagavi- 590010 Karnataka, India",590010,Belagavi,Karnataka,Government Laboratory,,15.9013176,74.51389313
"Neuberg Anand Reference Laboratory, Bengaluru","Neuberg Anand Reference Laboratory, Anand Tower, #54, bowring Hospital Road, Bengaluru, karnataka, India 560001",560001,Bengaluru,Karnataka,Private Laboratory,,12.97909546,77.60671234
"Cancyte Technologies Private Limited, Bengaluru","Cancyte Technologies Private Limited, Bengaluru, Karnataka 560018",560018,Bengaluru,Karnataka,Private Laboratory,,12.95818996,77.56493378
"Sakra World Hospital Laboratory Services, Bangalore","Sakra World Hospital Laboratory Services, 52/2 & 52/3, Deverabeesanahalli, Varthur Hobli, Bangalore-560103, Karnataka, India",560103,Bengaluru,Karnataka,Private Laboratory,,12.9308548,77.68338776
"Central Diagnostic Laboratory, Vydehi Institute of Medical Sciences & Research Centre, Bangalore","Central Diagnostic Laboratory, Vydehi Institute of Medical Sciences & Research Centre, Basement Hospital Building, #82, E.P.I.P. Area, Whitefield, Bangalore-560066, Karnataka",560066,Bengaluru,Karnataka,Private Laboratory,,12.97238445,77.74504852
"Laboratory Services, Apollo Hospitals, (A Unit of M/S Imperial Hospital and Research Centre Ltd), Bengaluru","Laboratory Services, Apollo Hospitals, (A Unit of M/S Imperial Hospital and Research Centre Ltd), 154/11, Opp IIM, Bannerghatta Road, Bengaluru - 560 076, Karnataka, India",560076,Bengaluru,Karnataka,Private Laboratory,,12.8846941,77.60511017
"National Institute of Virology Field Unit, Allapuzzha","National Institute of Virology Field Unit, Allapuzzha Vandanam, Kerala 688005",688005,Vandanam,Kerala,Government Laboratory,,9.40542984,76.36232758
"Government Medical College, Trivandrum","Government Medical College, Ulloor - Akkulam Rd, near SAT hospital Medical College Junction, Chalakkuzhi, Thiruvananthapuram, Kerala 695011",695011,Thiruvananthapuram,Kerala,Government Laboratory,,8.523655891,76.92073059
"Government Medical College, Kozhikode","Government Medical College, 17 Medical College Road Medical College Junction, Near Police Station, Kozhikode, Kerala 673008",673008,Kozhikode,Kerala,Government Laboratory,,11.26519775,75.86907196
"Government Medical College, Thrissur","Government Medical College, M. G. Kavu, Thrissur, Kerala 680596",680596,Thrissur,Kerala,Government Laboratory,,10.61293316,76.20303345
"Rajiv Gandhi Center for Biotechnology, Thiruvananthapuram","Rajiv Gandhi Center for Biotechnology,, Melarannoor Road Behind Central Jail Poojapura, Thycaud, Thiruvananthapuram, Kerala 695014",695014,Thiruvananthapuram,Kerala,Government Laboratory,,8.493478775,76.96192932
"Sree Chitra Tirunal Institute for Medical Sciences & Technology, Thiruvananthapuram","Sree Chitra Tirunal Institute for Medical Sciences & Technology, Jai Nagar W Rd, Chalakkuzhi, Thiruvananthapuram, Kerala 695011",695011,Thiruvananthapuram,Kerala,Government Laboratory,,8.523655891,76.92073059
"State Public Health Laboratory, Trivandrum","State Public Health Laboratory, Red Cross Road, Near, General Hospital Rd, Rishimangalam, Pattoor, Thiruvananthapuram, Kerala 695024",695024,Thiruvananthapuram,Kerala,Government Laboratory,,8.493050575,76.92562103
"Interuniversity, kottayam","Interuniversity, kottayam, Thalappady, Kerala 686019",686019,Thalappady,Kerala,Government Laboratory,,9.608002663,76.5798111
"Malabar Cancer Centre, Thalassery","Malabar Cancer Centre, Kodiyeri, Muzhikkara - MCC Rd, Illathaazha, Thalassery, Kerala 670103",670103,Thalassery,Kerala,Government Laboratory,,11.75569725,75.51400757
"Central University of Kerala, Kasaragod","Central University of Kerala, Tejaswini Hills, Periye (PO), Kasaragod (DT), Kerala - 671316",671316,Kasaragod,Kerala,Government Laboratory,,12.39305305,75.09851837
"DDRC SRL Diagnostics Pvt Ltd, Ernakulam","DDRC SRL Diagnostics Pvt Ltd, DDRC SRL TOWER,G-131, Panampilly Nagar, Ernakulam, Kerala 682036",682036,Ernakulam,Kerala,Private Laboratory,,9.958634377,76.29439545
"MIMS Laboratory Services, Kozhikode","Aster MIMS Laboratory Services, Mini, Mini Bypass Rd, Govindapuram, Kozhikode, Kerala 673016",673016,Kozhikode,Kerala,Private Laboratory,,11.26042747,75.81491852
"Sonam Nurboo Memorial Hospital, Leh-Ladakh","Sonam Nurboo Memorial Hospital, Old Leh Rd, Leh-Ladakh, Ladakh 194101",194101,Ladakh,Ladakh,Collection Site,,33.88518143,77.55783844
"National Institute of Virology, Pune","National Institute of Virology, Pune, 130/1, Pashan - Sus Rd, Pashan Gaon, Pashan, Pune, Maharashtra 411021",411021,Pune,Maharashtra,Government Laboratory,,18.51755333,73.76849365
"Seth GS Medical College & KEM Hospital, Mumbai","Seth GS Medical College & KEM Hospital, Acharya Donde Marg, Parel, Mumbai, Maharashtra 400012",400012,Mumbai,Maharashtra,Government Laboratory,,19.00188828,72.83994293
"Kasturba Hospital for Infectious Diseases, Mumbai","Kasturba Hospital for Infectious Diseases, Sane Guruji Marg, Arya Nagar, Chinchpokli, Mumbai, Maharashtra 400034",400034,Mumbai,Maharashtra,Government Laboratory,,18.97414207,72.81710815
"National Institute of Virology Field Unit, Mumbai","National Institute of Virology Field Unit, Haffkine Institute Compound, A D Marg, Parel Mumbai 4000012",400012,Mumbai,Maharashtra,Government Laboratory,,19.00188828,72.83994293
"Armed Forces Medical College, Pune","Armed Forces Medical College, Southern Command, Solapur Road, Wanowrie, near Race Course, Pune, Maharashtra 411040",411040,Pune,Maharashtra,Government Laboratory,,18.49076271,73.88686371
"BJ Medical College, Pune","BJ Medical College, Jai Prakash Narayan Road, Railway Station Rd, near Pune, Maharashtra 411001",411001,Pune,Maharashtra,Government Laboratory,,18.5194149,73.89211273
"Indira Gandhi Government Medical College & Hospital, Nagpur","Indira Gandhi Government Medical College & Hospital, Mayo Hospital, Central Ave, Mominpura, Nagpur 440018",440018,Nagpur,Maharashtra,Government Laboratory,,21.14976883,79.09551239
"Grant Medical College & Sir JJ Hospital, Mumbai","Grant Medical College & Sir JJ Hospital, J J Marg, Nagpada-Mumbai Central, Noor Baug, Mazgaon, Mumbai, Maharashtra 400008",400008,Mumbai,Maharashtra,Government Laboratory,,18.96816254,72.82672119
Govt Medical College & Hospital Aurangabad,"Govt Medical College & Hospital, University Road, Jubilee Park, Aurangabad, Maharashtra 431004",431004,Aurangabad,Maharashtra,Government Laboratory,,19.91275597,75.31834412
"V. M. Govt. Medical College, Solapur","V. M. Govt. Medical College, Opp. District Court, Solapur, Maharashtra 413003, India",413003,Solapur,Maharashtra,Government Laboratory,,17.64635658,75.93087769
"Haffkine Institute, Mumbai","Haffkine Institute, Acharya Donde Marg, Parel, Mumbai 400012, Maharashtra",400012,Mumbai,Maharashtra,Government Laboratory,,19.00188828,72.83994293
"Shree Bhausaheb Hire Govt Medical College, Dhule","Shree Bhausaheb Hire Govt Medical College, Chakkarbardi, Malegaon Road, Dhule, Maharashtra 424001",424001,Dhule,Maharashtra,Government Laboratory,,20.89017105,74.77605438
"Government Medical College And Hospital, Miraj","Government Medical College And Hospital, Pandharpur Rd, Maji Sainik Vasahat, Miraj, Maharashtra 416410",416410,Miraj,Maharashtra,Government Laboratory,,16.84672928,74.76708984
"All India Institute of Medical Sciences (AIIMS), Nagpur","All India Institute of Medical Sciences (AIIMS), Plot No. 2, Sector - 20, MIHAN, Nagpur 441108 Maharashtra",441108,Nagpur,Maharashtra,Government Laboratory,,20.94521523,79.07203674
"Nagpur Veterinary College, Nagpur","Department of Veterinary Public Health & Epidemiology, Nagpur Veterinary College. Seminary Hills, Nagpur 440006, Maharashtra",440006,Nagpur,Maharashtra,Government Laboratory,,21.16743279,79.0652771
"Advanced Centre for Treatment, Research and Education in Cancer (ACTREC), Tata Memorial Centre, Navi Mumbai","Advanced Centre for Treatment, Research and Education in Cancer (ACTREC), Tata Memorial Centre, Kharghar, Navi Mumbai - 410210, INDIA.",410210,Navi Mumbai,Maharashtra,Government Laboratory,,19.04610825,73.06758118
"Govt. Medical College, Akola","Govt. Medical College, Ashok Vatika, District Collector Office Road, Near, Bhandaraj BK, Akola, Maharashtra 444001, India",444001,Mumbai,Maharashtra,Government Laboratory,,10.89733124,-72.88657379
"National Centre for Cell Science (NCCS), Pune","National Centre for Cell Science, NCCS Complex, Savitribai Phule Pune University Campus, Ganeshkhind Road, Pune - 411007, Maharashtra State, India",411007,Pune,Maharashtra,Government Laboratory,,18.55371094,73.81451416
"ICMR-National Institute for Research in Reproductive Health, Mumbai","ICMR-National Institute for Research in Reproductive Health, Jehangir Merwanji Street, Parel, Mumbai 400012, Maharashtra, India",400012,Mumbai,Maharashtra,Government Laboratory,,19.00188828,72.83994293
"Rajiv Gandhi Medical College and Chhatrapati Shivaji Maharaj Hospital, Thane","Rajiv Gandhi Medical College and Chhatrapati Shivaji Maharaj Hospital, Thane - Belapur Rd, Kalwa West, Budhaji Nagar, Kalwa, Thane, Maharashtra 400605",400605,Thane,Maharashtra,Government Laboratory,,19.20355988,73.00643158
"Thyrocare Technologies Limited, Navi Mumbai","Thyrocare Technologies Limited, D-37/1 MIDC Turbhe Opp Sandoz, MIDC Industrial Area, Sanpada, Navi Mumbai, Maharashtra 400703",400703,Navi Mumbai,Maharashtra,Private Laboratory,,19.07659149,73.00891876
"Suburban Diagnostics (India) Pvt. Ltd., Mumbai","Suburban Diagnostics (India) Pvt. Ltd., 2nd Floor Aston, Shastri Nagar, Andheri (W), Mumbai, Maharashtra, India 400053",400053,Mumbai,Maharashtra,Private Laboratory,,19.1386013,72.82659149
"Metropolis Healthcare Ltd, Mumbai","Metropolis Healthcare Ltd, 4th Floor, Commerical Building 1-A, Kohinoor City Mall, Off LBS Marg, Vidyavihar (West), Mumbai, Maharashtra 400070",400070,Mumbai,Maharashtra,Private Laboratory,,19.07665825,72.88005829
"Sir H. N. Reliance Foundation Hospital and Research Center, Mumbai","Sir H.N. Reliance Foundation Hospital and Research Center, Reliance Life Sciences Pvt Ltd, MIDC, R-282, Thane - Belapur Rd, T.T.C. Industrial Area, Rabale, Navi Mumbai, Maharashtra 400701",400701,Navi Mumbai,Maharashtra,Private Laboratory,,19.12167358,73.00975037
"SRL Diagnostics, Goregaon West","SRL Diagnostics, Plot No 1, Prime Square building, Gaiwadi Industrial, estate, Next to Patel Petrol Pump, Opposite Mahesh Nagar, S.V. Road, Goregaon West, Mumbai, Maharashtra 400062",400062,Mumbai,Maharashtra,Private Laboratory,,19.16157913,72.84428406
"A.G Diagnostics Pvt Ltd, Pune","A.G Diagnostics Pvt Ltd, CTS No 809, F.P. 147, Nayantara Building, Bhandarkar Road, Pune, Maharashtra 411004",411004,Mumbai,Maharashtra,Private Laboratory,,18.51118851,73.83554077
"Kokilaben Dhirubhai Ambani Hospital Laboratory, Mumbai","Kokilaben Dhirubhai Ambani Hospital Laboratory, Four Bungalows, Andheri (West), Mumbai, Maharashtra, India",400053,Mumbai,Maharashtra,Private Laboratory,,19.1386013,72.82659149
"InfeXn Laboratories Private Ltd, Thane","InfeXn Laboratories Private Ltd, A/131, Therelek Compound, Road Number 23, Wagle Industrial Estate, Thane West, Thane, Maharashtra 400604",400604,Thane,Maharashtra,Private Laboratory,,19.2002449,72.9526825
"iGenetic Diagnostics Pvt. Ltd., Mumbai","iGenetic Diagnostics Pvt. Ltd., 1st Floor, krislon House, Off Marol Military Road, Andheri East, Mumbai Maharashtra 400072",400072,Mumbai,Maharashtra,Private Laboratory,,19.12395287,72.89176941
"Tata Memorial Centre Diagnostic Services, Tata Memorial Hospital, Mumbai","Tata Memorial Centre Diagnostic Services, Tata Memorial Hospital, Dept. of Microbiology & Serology, 6th Floor, Anexe Building, Tata Memorial Hospital, Dr. E. Borges Road, Parel, Mumbai 400012",400012,Mumbai,Maharashtra,Private Laboratory,,19.00188828,72.83994293
"Sahyadri Speciality Labs, Pune","Sahyadri Speciality Labs, Plot No. 54, S.No. 80-90, Lokmanya Colony, Kothrud, Pune-411038, Maharashtra, India",411038,Pune,Maharashtra,Private Laboratory,,18.51118469,73.80766296
"Dr. Jariwala Laboratory & Diagnostics LLP, Mumbai","Dr. Jariwala Laboratory & Diagnostics LLP, 1st Floor, Rasraj Heights, Rokadia Lane, Near Gokul Hotel Off,Mandpeshwar Road, Borivli (W), Mumbai-400092, Maharashtra",400092,Mumbai,Maharashtra,Private Laboratory,,19.22585297,72.84979248
"Metropolis Healthcare Limited, Pune","Construction House, Ground Floor, First Floor & Second Floor, 796/189-B, Bhandarkar Institute Road, Pune – 411004, Maharashtra, India",411004,Pune,Maharashtra,Private Laboratory,,18.51118851,73.83554077
"Ruby Hall Clinic, Department of Laboratory, Grant Medical Foundation, Pune","Ruby Hall Clinic, Department of Laboratory, Grant Medical Foundation, 40, Sassoon Road, Pune – 411001, Maharashtra, India",411001,Pune,Maharashtra,Private Laboratory,,18.5194149,73.89211273
"Qualilife Diagnostics, Mumbai","Qualilife Diagnostics, Balaji Arcade, 1st Floor, 544/A, Above Janata Sahakari Bank, Netaji Subhash Road, Mulud – West, Mumbai-400080",400080,Mumbai,Maharashtra,Private Laboratory,,19.1750164,72.951828
"SRL Diagnostics- Dr. Avinash Phadke (SRL Diagnostics Pvt Ltd), Mumbai","SRL Diagnostics- Dr. Avinash Phadke (SRL Diagnostics Pvt Ltd), Mahalaxmi Engineering Estate, 2nd floor, near k.j.khilnani high school, Mahim West, Mahim, Mumbai, Maharashtra 400016",400016,Mumbai,Maharashtra,Private Laboratory,,19.03759575,72.84222412
"Sunflower Laboratory And Diagnostic Center, Mumbai","Sunflower Laboratory And Diagnostic Center, Keshav Kunj, Marve Road, Malad West, Mumbai, Maharashtra 400064",400064,Mumbai,Maharashtra,Private Laboratory,,19.18576431,72.83763885
"Aditya Birla Memorial Hospital –Laboratory (A Unit of Aditya Birla Health Services Ltd.), Pune","Aditya Birla Memorial Hospital –Laboratory (A Unit of Aditya Birla Health Services Ltd.), Aditya Birla Hospital Marg, Chinchwad, Pune-411033, Maharashtra, India",411033,Pune,Maharashtra,Private Laboratory,,18.62664795,73.73623657
"Department of Laboratory Medicine – P.D. Hinduja National Hospital & Medical Research Centre, Mumbai","Department of Laboratory Medicine – P.D. Hinduja National Hospital & Medical Research Centre, Veer Savarkar Marg, Mahim (W), Mumbai- 400016, Maharashtra, India",400016,Mumbai,Maharashtra,Private Laboratory,,19.03759575,72.84222412
"All India Institute of Medical Sciences (AIIMS), Bhopal","All India Institute of Medical Sciences (AIIMS), AIIMS Campus Rd, Saket Nagar, Habib Ganj, Bhopal, Madhya Pradesh 462026",462026,Bhopal,Madhya Pradesh,Government Laboratory,,23.16329002,77.53621674
"National Institute for Research in Tribal Health, Jabalpur","National Institute for Research in Tribal Health, Nagpur Road, near NSCB Medical Collage, Dhanvantri Nagar, Shastri Nagar, Jabalpur, Madhya Pradesh 482003",482003,Jabalpur,Madhya Pradesh,Government Laboratory,,23.05028915,79.7353363
"Mahatma Gandhi Memorial Medical College, Indore","MGM Medical College, A.B.Road, Indore, 452001 Indore, Madhya Pradesh",452001,Indore,Madhya Pradesh,Government Laboratory,,22.7085247,75.87823486
"Gandhi Medical College, Bhopal","Gandhi Medical College, Sultania Rd, near Hamidia Hospital, Royal Market, Bhopal, Madhya Pradesh 462001",462001,Bhopal,Madhya Pradesh,Government Laboratory,,23.26375008,77.39061737
"Bhopal Memorial Hospital & Research Centre, Bhopal","Bhopal Memorial Hospital & Research Centre, Raisen Rd, Near Best Price, BMHRC Campus, Karond, Bhopal, Madhya Pradesh 462038",462038,Bhopal,Madhya Pradesh,Government Laboratory,,23.31919479,77.39698792
"Gajra Raja Medical College, Gwalior","Gajra Raja Medical College, Yadav Colony, Lashkar, Gwalior, Madhya Pradesh 474009",474009,Gwalior,Madhya Pradesh,Government Laboratory,,26.19921494,78.16103363
"ICAR-National Institute of High Security Animal Diseases (ICAR-NIHSAD), Bhopal","ICAR-National Institute of High Security Animal Diseases (ICAR-NIHSAD), Anand Nagar, Bhopal- 462022, Madhya Pradesh, India",462022,Bhopal,Madhya Pradesh,Government Laboratory,,23.22558784,77.52778625
"Defence Research & Development Establishment (DRDE), Gwalior","Defence Research & Development Organisation, Jhansi Road, Gwalior-474002, Madhya Pradesh",474002,Gwalior,Madhya Pradesh,Government Laboratory,,26.21962929,78.17964172
"Bundelkhand Government College, Sagar","Bundelkhand Government College, Shivaji Ward, Tili Rd, Sagar, Madhya Pradesh 470001",470001,Sagar,Madhya Pradesh,Government Laboratory,,11.25668526,-74.19581604
"Chirayu Medical College & Hospital, Bhopal","Chirayu Medical College & Hospital, Bhopal Indore Highway Bhainsakhedi, Bairagarh, Bhopal, Madhya Pradesh 462030",462030,Bhopal,Madhya Pradesh,Private Laboratory,,23.35104942,77.27534485
"Jawaharlal Nehru Institute of Medical Sciences, Imphal","Jawaharlal Nehru Institute of Medical Sciences, Porompat, Imphal, Manipur 795004",795004,Imphal,Manipur,Government Laboratory,,24.81926727,93.92900848
"Regional Institute of Medical Sciences, Imphal","Regional Institute of Medical Sciences, Lamphel Road, Lamphelpat, Imphal, Manipur 795004",795004,Imphal,Manipur,Government Laboratory,,24.81926727,93.92900848
"North Eastern Indira Gandhi Regional Institute of Health and Medical Sciences (NEIGRIHMS), Shillong","North Eastern Indira Gandhi Regional Institute of Health and Medical Sciences (NEIGRIHMS), NEIGRIHMS,Mawdiangdiang Shillong-793018, Meghalaya, India",793018,Shillong,Meghalaya,Government Laboratory,,25.59384537,91.94584656
"Zoram Medical College, Aizwal","Zoram Medical College, State Referral Hospital, Falkawn, Aizawl, Mizoram 796005",796005,Aizawl,Mizoram,Government Laboratory,,23.66634178,92.70202637
"ICMR-Regional Medical Research Centre (RMRC), Bhubaneswar","ICMR-Regional Medical Research Centre (RMRC), Chandrasekharpur, Bhubaneswar - 751 023, Odisha",751023,Bhubaneswar,Odisha,Government Laboratory,,20.31457901,85.81359863
"All India Institute of Medical Sciences (AIIMS), Bhubaneswar","All India Institute of Medical Sciences (AIIMS), Sijua, Patrapada, Bhubaneswar, Odisha 751019",751019,Bhubaneswar,Odisha,Government Laboratory,,20.23112679,85.77859497
"SCB Medical College, Cuttack","SCB Medical College, PG Hostel, Cuttack, Odisha 753001",753001,Cuttack,Odisha,Government Laboratory,,20.47534943,85.87706757
"M.K.C.G Medical College, Berhampur","M.K.C.G Medical College, National Highway 59, Berhampur, District - Ganjam, Odisha. Pin: 760 004, India",760004,Berhampur,Odisha,Government Laboratory,,3.468844891,-76.49364471
"Institute of Life Sciences (ILS), Bhubaneswar","Institute of Life Sciences (ILS), NALCO Square, Bhubaneswar 751023, Odisha, India",751023,Bhubaneswar,Odisha,Government Laboratory,,20.31457901,85.81359863
"Ispat General Hospital (IGH), Rourkela","Ispat General Hospital (IGH), Sector 19, Rourkela Steel Plant, Rourkela, 769011, Odisha, India",769011,Rourkela,Odisha,Government Laboratory,,22.19635201,84.89972687
"Department of Laboratory Services Apollo Hospitals, Bhubaneswar","Department of Laboratory Services Apollo Hospitals, Plot no 251, Sainik School Rd, Unit 15, Gajapati Nagar, Bhubaneswar, Odisha 751005",751005,Bhubaneswar,Odisha,Private Laboratory,,20.31074524,85.83404541
"Jawaharlal Institute of Postgraduate Medical Education and Research (JIPMER), Puducherry","JIPMER Campus Rd, Gorimedu, Dhanvantari Nagar, Puducherry, 605006",605006,Puducherry,Puducherry,Government Laboratory,,11.95611286,79.80049133
"Government Medical College, Amritsar","Government Medical College, Medical Enclave, Amritsar, Punjab 143001",143001,Amritsar,Punjab,Government Laboratory,,31.64060783,74.88435364
"Government Medical College, Patiala","Government Medical College, Sangrur Rd, New Lal Bagh Colony, Patiala, Punjab 147001",147001,Patiala,Punjab,Government Laboratory,,30.31217575,76.38358307
"Guru Gobind Singh Medical College & Hospital, Faridkot","Guru Gobind Singh Medical College & Hospital, Sadiq Road, Faridkot, Punjab 151203, India",151203,Faridkot,Punjab,Government Laboratory,,30.67411613,74.74028778
"Department of Microbiology, Dayanand Medical College and Hospital, Ludhiana","Department of Microbiology, Dayanand Medical College and Hospital, Civil Lines, Tagore Nagar, Ludhiana, Punjab 141001",141001,Ludhiana,Punjab,Private Laboratory,,30.91563416,75.8219223
"Tuli Diagnostic Centre, Amritsar","Tuli Diagnostic Centre, Majitha Road, Opp. Guru Nanak Dev Hospital, Amritsar-143001, ,Punjab, India",143001,Amritsar,Punjab,Private Laboratory,,31.64060783,74.88435364
"Sawai Man Singh (SMS) Medical College, Jaipur","SMS Medical College, Jawahar Lal Nehru Marg, Gangawal Park, Adarsh Nagar, Jaipur, Rajasthan 302004",302004,Jaipur,Rajasthan,Government Laboratory,,26.88748741,75.82540894
"Dr. Sampurnanand Medical College, Jodhpur","Dr. S.N. Medical College, Residency Road, Near Sriram Excellency Hotel, Sector-D, Shastri Nagar, opposite Petrol Pump, Jodhpur, Rajasthan 342003",342003,Jodhpur,Rajasthan,Government Laboratory,,26.2717495,72.9908905
"Jhalawar Medical College, Jhalawar","Jhalawar Medical College, N.H.-12, Kota Rd, Jhalawar, Rajasthan 326001",326001,Jhalawar,Rajasthan,Government Laboratory,,24.65457916,76.27968597
"RNT Medical College, Udaipur","RNT Medical College, Court Chowk, City's Prime Health Care Area, Udaipur, Rajasthan 313001",313001,Udaipur,Rajasthan,Government Laboratory,,24.55129242,73.71795654
"S.P. Medical College, Bikaner","S.P. Medical College, PBM Hospital, Bikaner, Rajasthan 334001",334001,Bikaner,Rajasthan,Government Laboratory,,28.14254189,73.17221832
"All India Institute of Medical Sciences (AIIMS), Jodhpur","All India Institute of Medical Sciences (AIIMS), Basni Industrial Area, MIA 2nd Phase, Basni, Jodhpur, Rajasthan 342005",342005,Jodhpur,Rajasthan,Government Laboratory,,26.23705673,72.9899292
"JLN Medical College, Ajmer","JLN Medical College, Kala Bagh, Ajmer, Rajasthan 305001",305001,Ajmer,Rajasthan,Government Laboratory,,26.46793175,74.63095093
"Govt. Medical College, Kota","Govt. Medical College, Rangbari Rd, Sector - A, Rangbari, Kota, Rajasthan 324010",324010,Kota,Rajasthan,Government Laboratory,,25.14345169,75.85971069
"Central Laboratory, Mahatma Gandhi University of Medical Sciences & Technology, Jaipur","Central Laboratory, Mahatma Gandhi University of Medical Sciences & Technology, Ricco Industrial Area, Sitapura, Tonk Road, Jaipur, Rajasthan 302022",302022,Jaipur,Rajasthan,Private Laboratory,,26.7703476,75.83222961
"Sir Thutob Namgyal Memorial Hospital (STNM), Gangtok","STNM Hospital, Sungava, Gangtok, Sikkim 737101",737101,Gangtok,Sikkim,Collection Site,,27.34140015,88.62127686
"King Institute of Preventive Medicine and Research, Chennai","King Institute of Preventive Medicine and Research, Chennai",600032,Chennai,Tamil Nadu,Government Laboratory,,13.01508045,80.20866394
"Madras Medical College, Chennai, Tamil Nadu","Madras Medical College, Near Park Town Station, Park Town, Chennai, Tamil Nadu 600003",600003,Chennai,Tamil Nadu,Government Laboratory,,13.08396721,80.27484131
"Government Theni Medical College, Theni","Govt. Theni Medical College, k. villakku, Tamil Nadu 625531",625531,Theni,Tamil Nadu,Government Laboratory,,10.02737999,77.46257019
"Tirunelveli Medical College, Tirunelveli","Tirunelveli Medical College, 3, High Ground Rd, Palayamkottai, Tirunelveli, Tamil Nadu 627011",627011,Tirunelveli,Tamil Nadu,Government Laboratory,,8.640077591,77.77462006
"Government Medical College, Thiruvarur","Government Medical College, Collector office Master Plan Complex, Collector Office Road, Thiruvarur, Tamil Nadu 610004",610004,Thiruvar,Tamil Nadu,Government Laboratory,,10.77485085,79.60427856
"Kumar Mangalam Government Medical College, Salem","Government Mohan Kumaramangalam Medical College, Steel Plant Road Sarkar Kollappatty, Salem, Tamil Nadu 636030",636030,Salem,Tamil Nadu,Government Laboratory,,11.67605019,78.07342529
"Coimbatore Medical College, Coimbatore","Coimbatore Medical College, 1 A, SF No 498, Avinashi Rd, Peelamedu, Civil Aerodrome Post, Coimbatore, Tamil Nadu 641018",641018,Coimbatore,Tamil Nadu,Government Laboratory,,11.00060463,76.9725647
"Government Villupuram Medical College, Villupuram","Government Villupuram Medical College, Mundiyampakkam, Villupuram, Tamil Nadu 605601",605601,Villupuram,Tamil Nadu,Government Laboratory,,11.99077511,79.5184021
"Madurai Medical College, Madurai","Medical College, Medical College Rd, Alwarpuram, Madurai, Tamil Nadu 625020",625020,Madurai,Tamil Nadu,Government Laboratory,,9.906694412,78.22589111
"K.A.P. Viswanatham Government Medical College, Trichy","K.A.P. Viswanatham Government Medical College, Periyamilaguparai, Colletor's office Road, Trichy, Tamil Nadu 620001",620001,Trichy,Tamil Nadu,Government Laboratory,,10.79154015,78.67259216
"IRT Perundurai Medical College, Perundurai","IRT Perundurai Medical College, Perundurai -638053 Erode District TamilNadu, India",638053,Perundurai,Tamil Nadu,Government Laboratory,,11.27109337,77.59897614
"Government Dharmapuri Medical College, Dharmapuri","Government Dharmapuri Medical College, Nethaji byepass Road, Dharmapuri, Tamil Nadu, 636701 India",636701,Dharmapuri,Tamil Nadu,Government Laboratory,,12.12901211,78.13004303
"Government Vellore Medical College, Vellore","Government Vellore Medical College, Sapthalipuram, Pennathur, Adukkamparai, Tamil Nadu 632011",632011,Vellore,Tamil Nadu,Government Laboratory,,12.84531116,79.14295959
"State Public Health Laboratory, Chennai","State Public Health Laboratory, Chokkalingam Nagar, Teynampet, Chennai, Tamil Nadu 600086",600086,Chennai,Tamil Nadu,Government Laboratory,,13.0514946,80.25710297
"ICMR-National Institute of Epidemiology, Chennai","ICMR-National Institute of Epidemiology, Second Main Road, Tamil Nadu Housing Board, Ayapakkam, Near Ambattur, Chennai 600077, Tamil Nadu, India",600077,Chennai,Tamil Nadu,Government Laboratory,,13.07548141,80.12536621
"Kanyakumari Government Medical College, Nagercoil","Kanyakumari Government Medical College, Asaripallam, Nagercoil, Kanyakumari, Tamil Nadu, India-629201",629201,Nagercoil,Tamil Nadu,Government Laboratory,,8.160289764,77.37891388
"Christian Medical College, Vellore","Department of Clinical Virology, Christian Medical College, 9th Floor, ASHA Building, IDA Scudder Road, Christian Medical College, Vellore, Tamil Nadu, India Pin 632004",632004,Vellore,Tamil Nadu,Private Laboratory,,12.92021275,79.12889099
"Apollo Hospitals Enterprise Limited, Chennai","Department of Laboratory Services, Apollo Hospitals Enterprise Limited, 21 Greams Lane, Off Greams Road, Chennai Tamil Nadu Pin 600006",600006,Chennai,Tamil Nadu,Private Laboratory,,13.05873299,80.25463867
"Neuberg Ehrlich Laboratory Pvt Ltd, Chennai","Neuberg Ehrlich Laboratory Pvt Ltd, 46 & 48, Masilamani Road, Balaji Nagar, Royapettah, Chennai - 600 014, Tamil Nadu",600014,Chennai,Tamil Nadu,Private Laboratory,,13.05331707,80.26891327
"Sri Ramachandra Laboratory Services, Chennai","No.1 Ramachandra Nagar, Porur, Chennai - 600116 Tamil Nadu, India",600116,Chennai,Tamil Nadu,Private Laboratory,,13.03670406,80.1546936
"Microbiological Laboratory, Coimbatore","Microbiological laboratory, no-02, kings colony, united nagar, veerakeralam road, vadavalli, Coimbatore, Tamil Nadu, Indi",641002,Coimbatore,Tamil Nadu,Private Laboratory,,11.01150036,76.94976807
"Y. R. Gaitonde Centre for AIDS Research and Education (YRG Care), Chennai","Division of Molecular Biology & Genotyping, YRG CARE Infectious Diseases Laboratory VHS Hospital Campus, Rajiv Gandhi Road, Tharamani, Chennai, Tamil Nadu 600113",600113,Chennai,Tamil Nadu,Private Laboratory,,12.99527836,80.24288177
"K.A.P. Viswanatham Government Medical College, Trichy","K.A.P.Viswanatham Government Medical College, Periyamilaguparai, Colletor's office Road, Trichy, Tamil Nadu 620001",620001,Trichy,Tamil Nadu,Private Laboratory,,10.79154015,78.67259216
"Madras Medical Mission Clinical Laboratory Services, Chennai","Madras Medical Mission Clinical, Laboratory Services, 4-A, Dr. J. Jayalalitha Nagar, Mogappair, Chennai-600037, India",600037,Chennai,Tamil Nadu,Private Laboratory,,13.07752705,80.17797852
"MIOT Hospitals – Department of Laboratory Medicine, Chennai","MIOT Hospitals – Department of Laboratory Medicine, No : 4/112, Mount Poonamallee Road, Manapakkam, Chennai-600089, Tamil Nadu",600089,Chennai,Tamil Nadu,Private Laboratory,,13.02908802,80.18517303
"PSG Hospitals Diagnostic Centre, Coimbatore","PSG Hospitals Diagnostic Centre, Avinashi Rd, Peelamedu, Coimbatore, Tamil Nadu 641004",641004,Coimbatore,Tamil Nadu,Private Laboratory,,11.04229736,77.02270508
"Gandhi Medical College, Secunderabad","Gandhi Medical College, Musheerabad, Padmarao Nagar, Secunderabad, Telangana 500003",500003,Secunderabad,Telangana,Government Laboratory,,17.44135284,78.49165344
"Osmania Medical College, Hyderabad","Osmania Medical College, 5-1-876, Turrebaz Khan Rd, Troop Bazaar, Koti, Hyderabad, Telangana 500095",500095,Hyderabad,Telangana,Government Laboratory,,17.38784409,78.48622131
"Sir Ronald Ross of Tropical & Communicable Diseases, Hyderabad","Sir Ronald Ross of Tropical & Communicable Diseases, (Fever Hospital), CGHS Complex, Old Aiport Road, Motilal Nehru Nagar, Begumpet, Hyderabad, Telangana 500016",500016,Hyderabad,Telangana,Government Laboratory,,17.43699265,78.46405792
"Nizam's Institute Of Medical Sciences, Hyderabad","Punjagutta Rd, Punjagutta Market, Punjagutta, Hyderabad, Telangana 500082",500082,Hyderabad,Telangana,Government Laboratory,,17.42493057,78.45900726
"Institute of Preventive Medicine, Hyderabad","Institute of Preventive Medicine, Narayanaguda, Hyderabad, Telangana 500029",500029,Hyderabad,Telangana,Government Laboratory,,17.40265846,78.48558044
"CSIR - Centre for Cellular and Molecular Biology, Hyderabad","Centre for Cellular and Molecular Biology, Uppal Rd, IICT Colony, Habsiguda, Hyderabad, Telangana 500007",500007,Hyderabad,Telangana,Government Laboratory,,17.41356087,78.53817749
"Centre for DNA Fingerprinting and Diagnostics (CDFD), Hyderabad","Centre for DNA Fingerprinting and Diagnostics (CDFD), Inner Ring Road, Uppal, Hyderabad – 500039, Telangana, India",500039,Hyderabad,Telangana,Government Laboratory,,17.40243721,78.56626129
"Laboratory Services Apollo Hospitals, Hyderabad","Laboratory Services Apollo Hospitals Hyderabad, 6th Floor Health street Building, Jubilee Hills, Hyderabad 500096",500096,Hyderabad,Telangana,Private Laboratory,,17.41274452,78.41620636
"Vijaya Diagnostic Centre Pvt. Ltd, Hyderabad","Vijaya Diagnostic Centre Pvt. Ltd, 3-6-16 & 17, Street No.19, opp. Lane to Tanishq, Chandra Nagar, Himayatnagar, Hyderabad, Telangana 500029",500029,Hyderabad,Telangana,Private Laboratory,,17.40265846,78.48558044
"Vimta Labs Ltd., Hyderabad","Vimta Labs Ltd., Plot No. 142, Phase 2, IDA Cherlapally, Hyderabad, Telangana, India 500051",500051,Hyderabad,Telangana,Private Laboratory,,17.46420479,78.59114075
"Apollo Health and Lifestyle Limited-Secunderabad, Diagnostics Laboratory, Hyderabad","Apollo Health and Lifestyle Limited-Secunderabad, Diagnostics Laboratory, NOS, 140/A, 140/B, 140/C, 141/A, 141/B, 141/C, Thokatta Village, Bowenpally, Secunderabad, Telangana, Hyderabad-500011",500011,Hyderabad,Telangana,Private Laboratory,,17.46389008,78.47280884
"Dr. Remedies labs Private Limited , Hyderabad","Dr. Remedies labs Private Limited , Titus Plaza, 1st Floor, Sharma Commercial Complex, Hyderabad, Telangana 500082",500082,Hyderabad,Telangana,Private Laboratory,,17.42493057,78.45900726
"PATHCARE Labs Pvt. Ltd., Hyderabad","PATHCARE Labs Pvt. Ltd., Sy. #34, Opp: Geethanjali Engineering College, Cheeryal (V), Keesara (M), Greater Hyderabad, Telangana 501301",501301,Hyderabad,Telangana,Private Laboratory,,17.42204094,78.72854614
"AMERICAN Institute of Pathology and Laboratory Sciences Private Limited, Hyderabad","AMERICAN Institute of Pathology and Laboratory Sciences Private Limited, Door No. 1-100/CCH, Second Floor, At Citizens Hospital, Nallagandla, Serilingampally, Hyderabad, Telangana 500019",500019,Hyderabad,Telangana,Private Laboratory,,17.48687744,78.30953979
"Medcis Pathlabs India Pvt.Ltd., Secunderabad","Medcis Pathlabs India Pvt.Ltd., Plot 16 & 17, Swathi Plaza, Bhavani Enclave, Anand Nagar, New Bowenpally, near Asish Gardens, Hyderabad, Telangana 500011",500011,Hyderabad,Telangana,Private Laboratory,,17.46389008,78.47280884
"The Department of Laboratory Medicine, Yashoda Hospital, Secunderabad","The Department of Laboratory Medicine, Yashoda Hospital, 9th Floor, 1-1-156 & 157, Alexander Road, S. P. Road, Secunderabad, Telangana 500003",500003,Secunderabad,Telangana,Private Laboratory,,17.44135284,78.49165344
"Biognosys Technologies (India) Private Limited, Hyderabad","Biognosys Technologies (India) Private Limited, # 8 - 148/174/11, NRI Colony, ALEAP Industrial Area, Medchal, Malkajgiri, Hyderabad, Telangana 500090, India",500090,Hyderabad,Telangana,Private Laboratory,,17.5386734,78.38309479
"Department of Laboratory Medicine, Star Hospitals, A Unit of UNIMED Healthcare Pvt Ltd, Hyderabad","Department of Laboratory Medicine, Star Hospitals, A Unit of UNIMED Healthcare Pvt Ltd. # 8-2-594/B, Road No. 10, Banjara Hills, Hyderabad- 500034, Telangana",500034,Hyderabad,Telangana,Private Laboratory,,17.41717339,78.4388504
"Tenet Diagnostics (A Unit of Center for Excellence in Medical Services Private Limited), Hyderabad","Tenet Diagnostics (A Unit of Center for Excellence in Medical Services Private Limited), Plot No 51, Kineta Towers, Journalist Colony, Road No 3, Banjara Hills, Hyderabad, Telangana 500034",500034,Hyderabad,Telangana,Private Laboratory,,17.41717339,78.4388504
"Government Medical College, Agartala","Government Medical College, 79 Tilla, Agartala, Tripura 799006",799006,Agartala,Tripura,Government Laboratory,,23.85787582,91.28472137
"King George's Medical University, Lucknow","King George's Medical University, Shah Mina Rd, Chowk, Lucknow, Uttar Pradesh 226003",226003,Lucknow,Uttar Pradesh,Government Laboratory,,26.87379074,80.88380432
"Institute of Medical Sciences, BHU, Varanasi","Institute of Medical Sciences, BHU, Aurobindo Colony, Banaras Hindu University Campus, Varanasi, Uttar Pradesh 221005",221005,Varanasi,Uttar Pradesh,Government Laboratory,,25.27246284,82.99128723
"Jawaharlal Nehru Medical College, Aligarh","Jawaharlal Nehru Medical College, Medical Rd, AMU Campus, Aligarh, Uttar Pradesh 202002",202002,Aligarh,Uttar Pradesh,Government Laboratory,,27.87350464,78.0139389
"Command Hospital, Lucknow","Command Hospital, Lucknow, Uttar Pradesh 226002",226002,Lucknow,Uttar Pradesh,Government Laboratory,,26.80550194,80.96524048
"Lala Lajpat Rai Memorial Medical College, Meerut","Lala Lajpat Rai Memorial Medical College, Garh Road, Jai Bhim Nagar, Meerut, Uttar Pradesh 250002",250002,Meerut,Uttar Pradesh,Government Laboratory,,28.95346069,77.70453644
"Sanjay Gandhi Post Graduate Institute, Lucknow","Sanjay Gandhi Post Graduate Institute, New PMSSY Rd, Raibareli Rd, Lucknow, Uttar Pradesh 226014",226014,Lucknow,Uttar Pradesh,Government Laboratory,,26.74771309,80.93795776
"Uttar Pradesh University of Medical Sciences, Saifai","Uttar Pradesh University of Medical Sciences, Off, Kurawali - Mainpuri - Etawah Rd, Saifai, Uttar Pradesh 206130",206130,Saifai,Uttar Pradesh,Government Laboratory,,26.94309998,78.96272278
"ICMR- Regional Medical Research Centre, Gorakhpur","ICMR- Regional Medical Research Centre, Baba Raghav Das (BRD) Medical College Campus, Gorakhpur, Uttar Pradesh PIN-273013",273013,Gorakhpur,Uttar Pradesh,Government Laboratory,,26.8264122,83.40538788
"Maharani Laxmi Bai Medical College, Jhansi","Maharani Laxmi Bai Medical College, Jhansi - Kanpur Road, Jhansi, Uttar Pradesh 284001, India",284001,Jhansi,Uttar Pradesh,Government Laboratory,,25.42804146,78.56879425
"Motilal Nehru Medical College, Prayagraj","Motilal Nehru Medical College, George Town, Prayagraj, Uttar Pradesh 211002, India",211002,Prayagraj,Uttar Pradesh,Government Laboratory,,25.47090912,81.8471756
"Dr. Ram Manohar Lohia Institute of Medical Sciences (DR.RMLIMS), Lucknow","Dr. Ram Manohar Lohia Institute of Medical Sciences (DR.RMLIMS), Vibhuti Khand, Gomtinagar, Lucknow-226010, Uttar Pradesh, India",226010,Lucknow,Uttar Pradesh,Government Laboratory,,26.84480476,81.01753235
"Sarojini Naidu Medical College, Agra","S.N. Medical College, Moti Katra, Agra - 282002 (U.P) India",282002,Agra,Uttar Pradesh,Government Laboratory,,27.19580078,77.98687744
"Government Institute of Medical Sciences (GIMS), Greater Noida","Government Institute of Medical Sciences (GIMS), Greater Noida, Gautam Buddha Nagar, U.P. - 201310, India",201310,Greater Noida,Uttar Pradesh,Government Laboratory,,28.44887352,77.50364685
"Ganesh Shanker Vidyarthi Memorial Medical College (GSVM Medical College), Kanpur","Ganesh Shanker Vidyarthi Memorial Medical College (GSVM Medical College), Swaroop Nagar, Kanpur 208002 ,Uttar Pradesh",208002,Kanpur,Uttar Pradesh,Government Laboratory,,26.50189972,80.29767609
"National Institute of Biologicals, Noida","National Institute of Biologicals, Plot No. A-32, Sector-62, Institutional Area, Noida -201309, Uttar Pradesh, India",201309,Noida,Uttar Pradesh,Government Laboratory,,28.61895752,77.35777283
"RML Mehrotra Pathology Pvt Ltd., Lucknow","RML Mehrotra Pathology Pvt Ltd., A-21/A, Nirala Nagar, Lucknow, Uttar Pradesh 226020",226020,Lucknow,Uttar Pradesh,Private Laboratory,,26.90592957,80.91317749
"Department of Laboratory Medicine, Jaypee Hospital, Noida","Department of Laboratory Medicine, Jaypee Hospital, Sector 128, Noida-201304",201304,Noida,Uttar Pradesh,Private Laboratory,,28.53192902,77.37918091
"Government Medical College, Haldwani","Government Medical College, Rampur Rd, Rampur, Haldwani, Uttarakhand 263129",263129,Haldwani,Uttarakhand,Government Laboratory,,29.2151635,79.5266898
"All India Institute of Medical Sciences (AIIMS), Rishikesh","All India Institute of Medical Sciences (AIIMS), Virbhadra Road Shivaji Nagar, near Barrage, Sturida Colony, Rishikesh, Uttarakhand 249203",249203,Rishikesh,Uttarakhand,Government Laboratory,,30.05657005,78.25675964
"Dr. Ahuja’s Pathlogy and Imaging Centre-Department of Laboratory Medicine, Dehradun","Dr. Ahuja’s Pathlogy and Imaging Centre-Department of Laboratory Medicine, 7-B Astley Hall, Ugrasain Rd, Dehradun, Uttarakhand 248001",248001,Dehradun,Uttarakhand,Private Laboratory,,30.31385803,78.0357666
"ICMR-National Institute of Cholera & Enteric Diseases (NICED), Kolkata","ICMR-National Institute of Cholera & Enteric Diseases (NICED), P-33, C.I.T. Road, Scheme XM, Beleghata, Kolkata 700 010, India",700010,Kolkata,West Bengal,Government Laboratory,,22.56668091,88.39633942
"Institute of Post Graduate Medical Education and Research (IPGMER), Kolkata","Institute of Post Graduate Medical Education and Research (IPGMER), 244, Acharya Jagadish Chandra Bose Rd, Bhowanipore, Kolkata, West Bengal 700020",700020,Kolkata,West Bengal,Government Laboratory,,22.53740501,88.35047913
"Midnapore Medical College, Midnapore","Midnapore Medical College, Vidyasagar Road , Paschim Medinipur, Midnapore, West Bengal, 721 101",721101,Midnapore,West Bengal,Government Laboratory,,22.42453766,87.33515167
"North Bengal Medical College, Siliguri","North Bengal Medical College, Sushruta Nagar, Siliguri, West Bengal 734012",734012,Siliguri,West Bengal,Government Laboratory,,26.68764496,88.37410736
"School of Tropical Medicine, Kolkata","School of Tropical Medicine, 108, Chittaranjan Avenue, Kolkata - 700073, West Bengal",700073,Kolkata,West Bengal,Government Laboratory,,22.57547951,88.35856628
"Malda Medical College, Malda","Malda Medical College, Dipak Rd, 3 No. Govt Colony, Uma Roy Sarani, Malda, West Bengal 732101",732101,Malda,West Bengal,Government Laboratory,,24.99691772,88.13844299
"Command Hospital (Eastern Command), Kolkata","Command Hospital (Eastern Command), Alipore, Kolkata, Pin- 700027, West Bengal, India",700027,Kolkata,West Bengal,Government Laboratory,,22.52820969,88.32904816
"Apollo Gleneagles Hospitals, Kolkata","Apollo Gleneagles Hospitals, 58, Canal Circular Road, Kolkata, West Bengal 700054",700054,Kolkata,West Bengal,Private Laboratory,,22.58155441,88.39409637
"Tata Medical Center, Kolkata","Department of Laboratory Sciences, Tata Medical Center, 14, MAR(E-W), DH Block(Newtown), Action Area I, Newtown, Kolkata, West Bengal 700160",700160,Kolkata,West Bengal,Private Laboratory,,22.5640079,88.492417
"Laboratory Services, Peerless Hospitex Hospital & Research Center Limited, Kolkata","Laboratory Services, Peerless Hospitex Hospital & Research Center Limited, 360, Panchasayar, Kolkata, West Bengal 700094, India",700094,Kolkata,West Bengal,Private Laboratory,,22.48161507,88.39611053
"AMRI Hospitals, Department of Laboratory Medicine, Kolkata","AMRI Hospitals, Department of Laboratory Medicine, JC 16 & 17, Sector III, Salt Lake City, Kolkata, West Bengal -700098, India",700098,Kolkata,West Bengal,Private Laboratory,,22.56448174,88.41183472
"Suraksha Diagnostics Pvt. Ltd., Kolkata","Suraksha Diagnostics Pvt. Ltd., 12/1, Premises No. 02-0327, DG Block, Action Area 1D, Newtown, Kolkata, West Bengal 700156, India",700156,Kolkata,West Bengal,Private Laboratory,,22.60918236,88.48451233
"Dr. Lal PathLabs Ltd, Reference Laboratory, Kolkata","Dr. Lal PathLabs Ltd, Reference Laboratory, Plot No. CB-31/1, Premises No. 031-0199, Street No, 199 Action area IC, Newtown, Kolkata-700156, West Bengal",700156,Kolkata,West Bengal,Private Laboratory,,22.60918236,88.48451233
